
# Worst residual: 135.12 km
# MJD 58687.000000 (2019 Jul 23  0:00)
ZTF02tw = ZTF035j = ZTF035w
1 89968U 00000ABF 19204.49919926  .00000000  00000-0  00000-0 0 10043
2 89968 032.1300 038.4653 5508832 031.0025 340.9067 00.94332785    02

# Worst residual: 135.68 km
# MJD 58688.000000 (2019 Jul 24  0:00)
ZTF02tw = ZTF035j = ZTF035w
1 89968U 00000ABF 19205.49919926  .00000000  00000-0  00000-0 0 10044
2 89968 032.0624 038.3832 5452592 031.5131 319.9160 00.94246998    02

# Worst residual: 118.34 km
# MJD 58689.000000 (2019 Jul 25  0:00)
ZTF02tw = ZTF035j = ZTF035w
1 89968U 00000ABF 19206.49919926  .00000000  00000-0  00000-0 0 10045
2 89968 032.0040 038.2868 5394236 032.0296 298.9439 00.94164782    05

# Worst residual: 76.88 km
# MJD 58690.000000 (2019 Jul 26  0:00)
ZTF02tw = ZTF035j = ZTF035w
1 89968U 00000ABF 19207.49919926  .00000000  00000-0  00000-0 0 10046
2 89968 031.9456 038.2039 5333784 032.5489 277.9919 00.94113351    00

# Worst residual: 55.45 km
# MJD 58691.000000 (2019 Jul 27  0:00)
ZTF02tw = ZTF035j = ZTF035w
1 89968U 00000ABF 19208.49919926  .00000000  00000-0  00000-0 0 10047
2 89968 031.8877 038.1125 5272325 033.0970 257.0194 00.94087829    09

# Worst residual: 82.72 km
# MJD 58692.000000 (2019 Jul 28  0:00)
ZTF02tw = ZTF035j = ZTF035w
1 89968U 00000ABF 19209.49919926  .00000000  00000-0  00000-0 0 10048
2 89968 031.8309 038.0235 5210753 033.6663 236.0221 00.94086655    06

# Worst residual: 85.42 km
# MJD 58693.000000 (2019 Jul 29  0:00)
ZTF02tw = ZTF035j = ZTF035w
1 89968U 00000ABF 19210.49919926  .00000000  00000-0  00000-0 0 10040
2 89968 031.7727 037.9269 5153301 034.2671 214.9994 00.94125002    07

# Worst residual: 88.11 km
# MJD 58694.000000 (2019 Jul 30  0:00)
ZTF02tw = ZTF035j = ZTF035w
1 89968U 00000ABF 19211.49919926  .00000000  00000-0  00000-0 0 10041
2 89968 031.7136 037.8278 5098784 034.8585 193.9895 00.94197934    02

# Worst residual: 113.35 km
# MJD 58695.000000 (2019 Jul 31  0:00)
ZTF02tw = ZTF035j = ZTF035w
1 89968U 00000ABF 19212.49919926  .00000000  00000-0  00000-0 0 10042
2 89968 031.6548 037.7275 5046314 035.4268 172.9965 00.94297404    09

# Worst residual: 124.73 km
# MJD 58696.000000 (2019 Aug  1  0:00)
ZTF02tw = ZTF035j = ZTF035w
1 89968U 00000ABF 19213.49919926  .00000000  00000-0  00000-0 0 10043
2 89968 031.5997 037.6167 4992109 035.9596 152.0414 00.94396103    09

# Worst residual: 116.20 km
# MJD 58697.000000 (2019 Aug  2  0:00)
ZTF02tw = ZTF035j = ZTF035w
1 89968U 00000ABF 19214.49919926  .00000000  00000-0  00000-0 0 10044
2 89968 031.5479 037.5325 4933352 036.4431 131.1074 00.94481385    05

# Worst residual: 94.84 km
# MJD 58698.000000 (2019 Aug  3  0:00)
ZTF02tw = ZTF035j = ZTF035w
1 89968U 00000ABF 19215.49919926  .00000000  00000-0  00000-0 0 10045
2 89968 031.5000 037.4343 4870089 036.9584 110.1254 00.94537047    09

# Worst residual: 89.29 km
# MJD 58699.000000 (2019 Aug  4  0:00)
ZTF02tw = ZTF035j = ZTF035w
1 89968U 00000ABF 19216.49919926  .00000000  00000-0  00000-0 0 10046
2 89968 031.4478 037.3284 4804841 037.4938 089.1087 00.94583993    02

# Worst residual: 70.53 km
# MJD 58700.000000 (2019 Aug  5  0:00)
ZTF02tw = ZTF035j = ZTF035w
1 89968U 00000ABF 19217.49919926  .00000000  00000-0  00000-0 0 10047
2 89968 031.3966 037.2219 4738817 038.0668 068.0385 00.94594004    08

# Worst residual: 102.84 km
# MJD 58701.000000 (2019 Aug  6  0:00)
ZTF02tw = ZTF035j = ZTF035w
1 89968U 00000ABF 19218.49919926  .00000000  00000-0  00000-0 0 10048
2 89968 031.3392 037.1142 4673676 038.6639 046.9302 00.94568423    00

# Worst residual: 130.36 km
# MJD 58702.000000 (2019 Aug  7  0:00)
ZTF02tw = ZTF035j = ZTF035w
1 89968U 00000ABF 19219.49919926  .00000000  00000-0  00000-0 0 10049
2 89968 031.2915 037.0125 4610442 039.2773 025.8122 00.94494909    01

# Worst residual: 141.51 km
# MJD 58703.000000 (2019 Aug  8  0:00)
ZTF02tw = ZTF035j = ZTF035w
1 89968U 00000ABF 19220.49919926  .00000000  00000-0  00000-0 0 10041
2 89968 031.2364 036.9009 4547843 039.8755 004.7478 00.94414885    03

# Worst residual: 140.42 km
# MJD 58704.000000 (2019 Aug  9  0:00)
ZTF02tw = ZTF035j = ZTF035w
1 89968U 00000ABF 19221.49919926  .00000000  00000-0  00000-0 0 10042
2 89968 031.1823 036.7976 4484778 040.4418 343.7373 00.94314845    09

# Worst residual: 145.76 km
# MJD 58705.000000 (2019 Aug 10  0:00)
ZTF02tw = ZTF035j = ZTF035w
1 89968U 00000ABF 19222.49919926  .00000000  00000-0  00000-0 0 10043
2 89968 031.1294 036.6977 4419665 040.9791 322.7914 00.94220487    09

# Worst residual: 123.36 km
# MJD 58706.000000 (2019 Aug 11  0:00)
ZTF02tw = ZTF035j = ZTF035w
1 89968U 00000ABF 19223.49919926  .00000000  00000-0  00000-0 0 10044
2 89968 031.0786 036.6016 4351581 041.5051 301.8860 00.94144571    03

# Worst residual: 79.78 km
# MJD 58707.000000 (2019 Aug 12  0:00)
ZTF02tw = ZTF035j = ZTF035w
1 89968U 00000ABF 19224.49919926  .00000000  00000-0  00000-0 0 10045
2 89968 031.0316 036.5186 4280869 042.0339 280.9919 00.94092052    02

# Worst residual: 73.32 km
# MJD 58708.000000 (2019 Aug 13  0:00)
ZTF02tw = ZTF035j = ZTF035w
1 89968U 00000ABF 19225.49919926  .00000000  00000-0  00000-0 0 10046
2 89968 030.9863 036.4121 4208812 042.6145 260.0730 00.94074634    00

# Worst residual: 102.15 km
# MJD 58709.000000 (2019 Aug 14  0:00)
ZTF02tw = ZTF035j = ZTF035w
1 89968U 00000ABF 19226.49919926  .00000000  00000-0  00000-0 0 10047
2 89968 030.9449 036.3163 4138450 043.2119 239.1278 00.94090346    05

# Worst residual: 109.06 km
# MJD 58710.000000 (2019 Aug 15  0:00)
ZTF02tw = ZTF035j = ZTF035w
1 89968U 00000ABF 19227.49919926  .00000000  00000-0  00000-0 0 10048
2 89968 030.8968 036.2151 4071449 043.8518 218.1437 00.94137841    05

# Worst residual: 103.34 km
# MJD 58711.000000 (2019 Aug 16  0:00)
ZTF02tw = ZTF035j = ZTF035w
1 89968U 00000ABF 19228.49919926  .00000000  00000-0  00000-0 0 10049
2 89968 030.8524 036.1119 4008245 044.4706 197.1815 00.94222758    04

# Worst residual: 130.19 km
# MJD 58712.000000 (2019 Aug 17  0:00)
ZTF02tw = ZTF035j = ZTF035w
1 89968U 00000ABF 19229.49919926  .00000000  00000-0  00000-0 0 10040
2 89968 030.8090 036.0096 3946532 045.0451 176.2567 00.94325391    07

# Worst residual: 143.21 km
# MJD 58713.000000 (2019 Aug 18  0:00)
ZTF02tw = ZTF035j = ZTF035w
1 89968U 00000ABF 19230.49919926  .00000000  00000-0  00000-0 0 10042
2 89968 030.7676 035.9107 3883203 045.5611 155.3796 00.94427385    03

# Worst residual: 133.89 km
# MJD 58714.000000 (2019 Aug 19  0:00)
ZTF02tw = ZTF035j = ZTF035w
1 89968U 00000ABF 19231.49919926  .00000000  00000-0  00000-0 0 10043
2 89968 030.7296 035.8145 3815071 046.0497 134.5111 00.94511408    08

# Worst residual: 107.08 km
# MJD 58715.000000 (2019 Aug 20  0:00)
ZTF02tw = ZTF035j = ZTF035w
1 89968U 00000ABF 19232.49919926  .00000000  00000-0  00000-0 0 10044
2 89968 030.6948 035.7167 3741938 046.5552 113.6062 00.94568975    05
